{
  "type": "FeatureCollection",
  "features": [
    {
      "type": "Feature",
      "properties": {
        "norad_id": 30436,
        "name": "FENGYUN 1C DEB",
        "group": "fengyun-1c-debris",
        "lat": -22.39190944168446,
        "lon": 51.6150647145029,
        "alt_km": 779.4434659954395,
        "timestamp": "2025-12-06T20:37:56.348509+00:00",
        "meta_object_name": "FENGYUN 1C DEB",
        "meta_object_id": "1999-025AEX",
        "meta_epoch": "2025-12-05T16:58:06.212640",
        "meta_mean_motion": 14.22196988,
        "meta_eccentricity": 0.00968579,
        "meta_inclination": 98.4263,
        "meta_ra_of_asc_node": 234.0146,
        "meta_arg_of_pericenter": 154.3496,
        "meta_mean_anomaly": 269.1098,
        "meta_ephemeris_type": 0,
        "meta_classification_type": "U",
        "meta_norad_cat_id": 30436,
        "meta_element_set_no": 999,
        "meta_rev_at_epoch": 96337,
        "meta_bstar": 0.0035348359,
        "meta_mean_motion_dot": 8.191e-05,
        "meta_mean_motion_ddot": 0,
        "tle_line1": "1 30436U 99025AEX 25339.70701635  .00008191  00000+0  35348-2 0  9995",
        "tle_line2": "2 30436  98.4263 234.0146 0096857 154.3496 269.1098 14.22196988963370"
      },
      "geometry": {
        "type": "Point",
        "coordinates": [
          51.6150647145029,
          -22.39190944168446
        ]
      }
    },
    {
      "type": "Feature",
      "properties": {
        "norad_id": 30437,
        "name": "FENGYUN 1C DEB",
        "group": "fengyun-1c-debris",
        "lat": -20.412831262027034,
        "lon": 3.2477432343306827,
        "alt_km": 629.9000219494101,
        "timestamp": "2025-12-06T20:37:56.348519+00:00",
        "meta_object_name": "FENGYUN 1C DEB",
        "meta_object_id": "1999-025AEY",
        "meta_epoch": "2025-12-06T14:50:32.242272",
        "meta_mean_motion": 14.87647611,
        "meta_eccentricity": 0.00359377,
        "meta_inclination": 98.9213,
        "meta_ra_of_asc_node": 359.6254,
        "meta_arg_of_pericenter": 121.1168,
        "meta_mean_anomaly": 7.3199,
        "meta_ephemeris_type": 0,
        "meta_classification_type": "U",
        "meta_norad_cat_id": 30437,
        "meta_element_set_no": 999,
        "meta_rev_at_epoch": 99096,
        "meta_bstar": 0.0040261822,
        "meta_mean_motion_dot": 0.00037187,
        "meta_mean_motion_ddot": 0,
        "tle_line1": "1 30437U 99025AEY 25340.61842873  .00037187  00000+0  40262-2 0  9996",
        "tle_line2": "2 30437  98.9213 359.6254 0035937 121.1168   7.3199 14.87647611990969"
      },
      "geometry": {
        "type": "Point",
        "coordinates": [
          3.2477432343306827,
          -20.412831262027034
        ]
      }
    },
    {
      "type": "Feature",
      "properties": {
        "norad_id": 30438,
        "name": "FENGYUN 1C DEB",
        "group": "fengyun-1c-debris",
        "lat": 15.97265965046019,
        "lon": -4.311334140570335,
        "alt_km": 1019.5174421803749,
        "timestamp": "2025-12-06T20:37:56.348529+00:00",
        "meta_object_name": "FENGYUN 1C DEB",
        "meta_object_id": "1999-025AEZ",
        "meta_epoch": "2025-12-06T11:55:39.967104",
        "meta_mean_motion": 13.92069747,
        "meta_eccentricity": 0.01345459,
        "meta_inclination": 98.7505,
        "meta_ra_of_asc_node": 357.8729,
        "meta_arg_of_pericenter": 203.9166,
        "meta_mean_anomaly": 155.5707,
        "meta_ephemeris_type": 0,
        "meta_classification_type": "U",
        "meta_norad_cat_id": 30438,
        "meta_element_set_no": 999,
        "meta_rev_at_epoch": 95219,
        "meta_bstar": 0.002228602,
        "meta_mean_motion_dot": 3.027e-05,
        "meta_mean_motion_ddot": 0,
        "tle_line1": "1 30438U 99025AEZ 25340.49699036  .00003027  00000+0  22286-2 0  9996",
        "tle_line2": "2 30438  98.7505 357.8729 0134545 203.9166 155.5707 13.92069747952198"
      },
      "geometry": {
        "type": "Point",
        "coordinates": [
          -4.311334140570335,
          15.97265965046019
        ]
      }
    },
    {
      "type": "Feature",
      "properties": {
        "norad_id": 30439,
        "name": "FENGYUN 1C DEB",
        "group": "fengyun-1c-debris",
        "lat": -49.37996836630511,
        "lon": 3.0910718836852,
        "alt_km": 849.7175836730721,
        "timestamp": "2025-12-06T20:37:56.348540+00:00",
        "meta_object_name": "FENGYUN 1C DEB",
        "meta_object_id": "1999-025AFA",
        "meta_epoch": "2025-12-06T07:18:59.359680",
        "meta_mean_motion": 14.08824429,
        "meta_eccentricity": 0.00390418,
        "meta_inclination": 98.7499,
        "meta_ra_of_asc_node": 352.2085,
        "meta_arg_of_pericenter": 355.15,
        "meta_mean_anomaly": 22.6808,
        "meta_ephemeris_type": 0,
        "meta_classification_type": "U",
        "meta_norad_cat_id": 30439,
        "meta_element_set_no": 999,
        "meta_rev_at_epoch": 96701,
        "meta_bstar": 0.00079789306,
        "meta_mean_motion_dot": 1.344e-05,
        "meta_mean_motion_ddot": 0,
        "tle_line1": "1 30439U 99025AFA 25340.30485370  .00001344  00000+0  79789-3 0  9992",
        "tle_line2": "2 30439  98.7499 352.2085 0039041 355.1500  22.6808 14.08824429967019"
      },
      "geometry": {
        "type": "Point",
        "coordinates": [
          3.0910718836852,
          -49.37996836630511
        ]
      }
    },
    {
      "type": "Feature",
      "properties": {
        "norad_id": 30441,
        "name": "FENGYUN 1C DEB",
        "group": "fengyun-1c-debris",
        "lat": -74.18094293310972,
        "lon": -144.15854078701577,
        "alt_km": 849.7315318344963,
        "timestamp": "2025-12-06T20:37:56.348551+00:00",
        "meta_object_name": "FENGYUN 1C DEB",
        "meta_object_id": "1999-025AFC",
        "meta_epoch": "2025-12-06T12:24:12.719232",
        "meta_mean_motion": 13.77666353,
        "meta_eccentricity": 0.0183589,
        "meta_inclination": 99.1352,
        "meta_ra_of_asc_node": 70.1153,
        "meta_arg_of_pericenter": 274.24,
        "meta_mean_anomaly": 83.7792,
        "meta_ephemeris_type": 0,
        "meta_classification_type": "U",
        "meta_norad_cat_id": 30441,
        "meta_element_set_no": 999,
        "meta_rev_at_epoch": 94784,
        "meta_bstar": 0.0010000843,
        "meta_mean_motion_dot": 1.087e-05,
        "meta_mean_motion_ddot": 0,
        "tle_line1": "1 30441U 99025AFC 25340.51681388  .00001087  00000+0  10001-2 0  9990",
        "tle_line2": "2 30441  99.1352  70.1153 0183589 274.2400  83.7792 13.77666353947848"
      },
      "geometry": {
        "type": "Point",
        "coordinates": [
          -144.15854078701577,
          -74.18094293310972
        ]
      }
    },
    {
      "type": "Feature",
      "properties": {
        "norad_id": 30442,
        "name": "FENGYUN 1C DEB",
        "group": "fengyun-1c-debris",
        "lat": -48.64748463101349,
        "lon": 84.57752409758459,
        "alt_km": 764.9395783223708,
        "timestamp": "2025-12-06T20:37:56.348561+00:00",
        "meta_object_name": "FENGYUN 1C DEB",
        "meta_object_id": "1999-025AFD",
        "meta_epoch": "2025-12-06T05:43:55.818336",
        "meta_mean_motion": 14.2850875,
        "meta_eccentricity": 0.00539963,
        "meta_inclination": 98.8676,
        "meta_ra_of_asc_node": 73.7299,
        "meta_arg_of_pericenter": 306.7159,
        "meta_mean_anomaly": 52.9069,
        "meta_ephemeris_type": 0,
        "meta_classification_type": "U",
        "meta_norad_cat_id": 30442,
        "meta_element_set_no": 999,
        "meta_rev_at_epoch": 97069,
        "meta_bstar": 0.0036137751,
        "meta_mean_motion_dot": 9.162e-05,
        "meta_mean_motion_ddot": 0,
        "tle_line1": "1 30442U 99025AFD 25340.23884049  .00009162  00000+0  36138-2 0  9990",
        "tle_line2": "2 30442  98.8676  73.7299 0053996 306.7159  52.9069 14.28508750970691"
      },
      "geometry": {
        "type": "Point",
        "coordinates": [
          84.57752409758459,
          -48.64748463101349
        ]
      }
    },
    {
      "type": "Feature",
      "properties": {
        "norad_id": 30443,
        "name": "FENGYUN 1C DEB",
        "group": "fengyun-1c-debris",
        "lat": -56.09182023581907,
        "lon": -58.78632199002768,
        "alt_km": 764.0759363967672,
        "timestamp": "2025-12-06T20:37:56.348573+00:00",
        "meta_object_name": "FENGYUN 1C DEB",
        "meta_object_id": "1999-025AFE",
        "meta_epoch": "2025-12-05T19:49:26.682528",
        "meta_mean_motion": 14.36640788,
        "meta_eccentricity": 0.00283479,
        "meta_inclination": 98.8483,
        "meta_ra_of_asc_node": 286.7523,
        "meta_arg_of_pericenter": 358.1131,
        "meta_mean_anomaly": 1.9943,
        "meta_ephemeris_type": 0,
        "meta_classification_type": "U",
        "meta_norad_cat_id": 30443,
        "meta_element_set_no": 999,
        "meta_rev_at_epoch": 97334,
        "meta_bstar": 0.0045821195,
        "meta_mean_motion_dot": 0.00013527,
        "meta_mean_motion_ddot": 0,
        "tle_line1": "1 30443U 99025AFE 25339.82600327  .00013527  00000+0  45821-2 0  9998",
        "tle_line2": "2 30443  98.8483 286.7523 0028347 358.1131   1.9943 14.36640788973344"
      },
      "geometry": {
        "type": "Point",
        "coordinates": [
          -58.78632199002768,
          -56.09182023581907
        ]
      }
    }
  ]
}